[{"OBJECT_NAME":"TIANMU-1 09","OBJECT_ID":"2023-101C","EPOCH":"2026-03-09T22:17:34.703232","MEAN_MOTION":15.29080822,"ECCENTRICITY":0.00049013,"INCLINATION":97.267,"RA_OF_ASC_NODE":121.1263,"ARG_OF_PERICENTER":139.4293,"MEAN_ANOMALY":220.7314,"EPHEMERIS_TYPE":0,"CLASSIFICATION_TYPE":"U","NORAD_CAT_ID":57401,"ELEMENT_SET_NO":999,"REV_AT_EPOCH":14647,"BSTAR":0.00030540035,"MEAN_MOTION_DOT":8.553e-5,"MEAN_MOTION_DDOT":0},{"OBJECT_NAME":"STARLINK-35534","OBJECT_ID":"2025-243AB","EPOCH":"2026-03-09T18:01:52.919616","MEAN_MOTION":15.30197677,"ECCENTRICITY":8.266e-5,"INCLINATION":53.1599,"RA_OF_ASC_NODE":244.9327,"ARG_OF_PERICENTER":53.007,"MEAN_ANOMALY":307.1007,"EPHEMERIS_TYPE":0,"CLASSIFICATION_TYPE":"U","NORAD_CAT_ID":66202,"ELEMENT_SET_NO":999,"REV_AT_EPOCH":2066,"BSTAR":0.00092720001,"MEAN_MOTION_DOT":0.000272,"MEAN_MOTION_DDOT":0}]
